[{"OBJECT_NAME":"STARLINK-4255","OBJECT_ID":"2022-076T","EPOCH":"2026-03-09T19:06:22.614048","MEAN_MOTION":15.08841248,"ECCENTRICITY":0.00016088,"INCLINATION":53.217,"RA_OF_ASC_NODE":93.6442,"ARG_OF_PERICENTER":73.3549,"MEAN_ANOMALY":286.7619,"EPHEMERIS_TYPE":0,"CLASSIFICATION_TYPE":"U","NORAD_CAT_ID":53003,"ELEMENT_SET_NO":999,"REV_AT_EPOCH":20286,"BSTAR":4.757932e-5,"MEAN_MOTION_DOT":4.69e-6,"MEAN_MOTION_DDOT":0},{"OBJECT_NAME":"FENGYUN 1C DEB","OBJECT_ID":"1999-025DZE","EPOCH":"2026-02-28T06:22:54.338880","MEAN_MOTION":15.08907087,"ECCENTRICITY":0.00232464,"INCLINATION":99.4552,"RA_OF_ASC_NODE":173.2368,"ARG_OF_PERICENTER":218.3208,"MEAN_ANOMALY":141.6363,"EPHEMERIS_TYPE":0,"CLASSIFICATION_TYPE":"U","NORAD_CAT_ID":36684,"ELEMENT_SET_NO":999,"REV_AT_EPOCH":67065,"BSTAR":0.0055309563,"MEAN_MOTION_DOT":0.00088715,"MEAN_MOTION_DDOT":0}]
